CREW DRAGON 12          
1 67796U 26031A   26061.93054995  .00009325  00000+0  18075-3 0  9998
2 67796  51.6319 105.7724 0008215 150.8374 209.3074 15.48408287555021
